{"fetched_at":"2026-07-11T09:24:38.865Z","source":"https://celestrak.org/NORAD/elements/gp.php?NAME=SENTINEL&FORMAT=JSON","constellation":"sentinel-5p","records":[{"OBJECT_NAME":"SENTINEL-5P","OBJECT_ID":"2017-064A","EPOCH":"2026-07-10T07:42:36.714528","CLASSIFICATION_TYPE":"U","MEAN_MOTION":14.19522787,"ECCENTRICITY":0.00011159,"INCLINATION":98.7929,"RA_OF_ASC_NODE":133.2886,"ARG_OF_PERICENTER":92.4357,"MEAN_ANOMALY":267.6947,"EPHEMERIS_TYPE":0,"NORAD_CAT_ID":42969,"ELEMENT_SET_NO":999,"REV_AT_EPOCH":45284,"BSTAR":0.000024329893,"MEAN_MOTION_DOT":7e-8,"MEAN_MOTION_DDOT":0}]}
